ONEWEB-0589             
1 54655U 22166P   24180.61060300  .00000031  00000+0  44740-4 0  9999
2 54655  87.9281  27.0324 0002068 114.3733 245.7616 13.21823740 76610
ONEWEB-0590             
1 54656U 22166Q   24180.93704281 -.00000028  00000+0 -99315-4 0  9994
2 54656  87.9284  26.9746 0001702  83.6322 276.5006 13.21822104 76647
ONEWEB-0591             
1 54657U 22166R   24180.57116712 -.00000018  00000+0 -76278-4 0  9993
2 54657  87.9280  27.0431 0001814  90.6272 269.5070 13.21827401 77080
ONEWEB-0592             
1 54658U 22166S   24180.65001861 -.00000074  00000+0 -21170-3 0  9993
2 54658  87.9276  26.9925 0001755  94.2442 265.8892 13.21823452 76515
ONEWEB-0593             
1 54659U 22166T   24180.59797816  .00000005  00000+0 -19403-4 0  9999
2 54659  87.9280  27.0283 0001827  94.3564 265.7779 13.21823547 77087
ONEWEB-0594             
1 54660U 22166U   24180.61690468 -.00000034  00000+0 -11321-3 0  9992
2 54660  87.9284  27.0251 0001999  84.8700 275.2662 13.21827065 77091
ONEWEB-0595             
1 54661U 22166V   24180.59483653 -.00000005  00000+0 -44049-4 0  9998
2 54661  87.9281  27.0165 0001753  78.6104 281.5227 13.21825780 77077
ONEWEB-0596             
1 54662U 22166W   24180.94650028 -.00000073  00000+0 -20906-3 0  9990
2 54662  87.9284  26.9522 0001674  95.6852 264.4473 13.21823602 76654
